[{"OBJECT_NAME":"STARLINK-32350","OBJECT_ID":"2024-164P","EPOCH":"2026-03-09T08:03:34.368480","MEAN_MOTION":15.3019429,"ECCENTRICITY":0.0001169,"INCLINATION":53.1602,"RA_OF_ASC_NODE":92.7426,"ARG_OF_PERICENTER":79.3281,"MEAN_ANOMALY":280.7851,"EPHEMERIS_TYPE":0,"CLASSIFICATION_TYPE":"U","NORAD_CAT_ID":61063,"ELEMENT_SET_NO":999,"REV_AT_EPOCH":8342,"BSTAR":3.2592687e-5,"MEAN_MOTION_DOT":6.06e-6,"MEAN_MOTION_DDOT":0},{"OBJECT_NAME":"CERISE","OBJECT_ID":"1995-033B","EPOCH":"2026-03-09T23:11:27.589056","MEAN_MOTION":15.32047731,"ECCENTRICITY":0.00057118,"INCLINATION":98.325,"RA_OF_ASC_NODE":273.5192,"ARG_OF_PERICENTER":211.8754,"MEAN_ANOMALY":148.214,"EPHEMERIS_TYPE":0,"CLASSIFICATION_TYPE":"U","NORAD_CAT_ID":23606,"ELEMENT_SET_NO":999,"REV_AT_EPOCH":66468,"BSTAR":0.00062940675,"MEAN_MOTION_DOT":0.00019422,"MEAN_MOTION_DDOT":0}]
